1 45371U 20019M   23320.37143263  .00007300  00000-0  50869-3 0  9992
2 45371  53.0547 356.9052 0001449  99.1360 260.9793 15.06384583202476
1 45371U 20019M   23320.83586470  .00007310  00000-0  50927-3 0  9990
2 45371  53.0545 354.8204 0001463  97.6375 262.4780 15.06389160202542
1 45371U 20019M   23321.49931951  .00014711  00000-0  10037-2 0  9991
2 45371  53.0551 351.8413 0001391  95.1014 265.0134 15.06427508202643
1 45371U 20019M   23321.49931951  .00014711  00000-0  10037-2 0  9991
2 45371  53.0551 351.8413 0001391  95.1014 265.0134 15.06427508202643
1 45371U 20019M   23322.09644096  .00000932  00000-0  81467-4 0  9996
2 45371  53.0556 349.1616 0001417  83.8764 276.2386 15.06408609202732
1 45371U 20019M   23322.49452342  .00000719  00000-0  67178-4 0  9997
2 45371  53.0559 347.3737 0001530  93.3463 266.7701 15.06402185202791
1 45371U 20019M   23322.75991203 -.00001333  00000-0 -70616-4 0  9996
2 45371  53.0553 346.1809 0001460  92.7547 267.3609 15.06396876202838
1 45371U 20019M   23322.75991203 -.00001333  00000-0 -70616-4 0  9996
2 45371  53.0553 346.1809 0001460  92.7547 267.3609 15.06396876202838
1 45371U 20019M   23323.35703585 -.00001716  00000-0 -96356-4 0  9991
2 45371  53.0560 343.5021 0001367  91.7618 268.3527 15.06403645202920
1 45371U 20019M   23323.75511327 -.00002531  00000-0 -15104-3 0  9993
2 45371  53.0554 341.7145 0001444  90.9512 269.1642 15.06408651202985
1 45371U 20019M   23324.08685162  .00001718  00000-0  13422-3 0  9994
2 45371  53.0556 340.2261 0001392  90.9103 269.2046 15.06396142203035
1 45371U 20019M   23324.48493025  .00003096  00000-0  22662-3 0  9990
2 45371  53.0546 338.4388 0001434  89.4396 270.6757 15.06402756203097
1 45371U 20019M   23324.75031993  .00002021  00000-0  15451-3 0  9997
2 45371  53.0544 337.2472 0001400  86.6558 273.4591 15.06398924203131
1 45371U 20019M   23325.41377056  .00009968  00000-0  68652-3 0  9992
2 45371  53.0544 334.2684 0001449  91.3102 268.8053 15.06434361203232
1 45371U 20019M   23325.41377056  .00009968  00000-0  68652-3 0  9992
2 45371  53.0544 334.2684 0001449  91.3102 268.8053 15.06434361203232
1 45371U 20019M   23326.01090155  .00002830  00000-0  20878-3 0  9990
2 45371  53.0544 331.5881 0001704  87.9453 272.1731 15.06411240203327
1 45371U 20019M   23326.34263935  .00000690  00000-0  65228-4 0  9995
2 45371  53.0549 330.0985 0001272  91.2251 268.8883 15.06403762203370
1 45371U 20019M   23326.34263935  .00000690  00000-0  65228-4 0  9995
2 45371  53.0549 330.0985 0001272  91.2251 268.8883 15.06403762203370
1 45371U 20019M   23327.40419904  .00000186  00000-0  31368-4 0  9990
2 45371  53.0557 325.3303 0001583  85.0230 275.0940 15.06393231203534
1 45371U 20019M   23327.40419904  .00000186  00000-0  31368-4 0  9990
2 45371  53.0557 325.3303 0001583  85.0230 275.0940 15.06393231203534
1 45371U 20019M   23328.13400172  .00002853  00000-0  21034-3 0  9999
2 45371  53.0552 322.0567 0001576  84.2647 275.8521 15.06401576203647
1 45371U 20019M   23328.26669938  .00005130  00000-0  36297-3 0  9998
2 45371  53.0544 321.4614 0001632  83.4478 276.6697 15.06406156203664
1 45371U 20019M   23329.12921419  .00000271  00000-0  37082-4 0  9994
2 45371  53.0541 317.5869 0001937 116.6941 243.4246 15.06394577203790
1 45371U 20019M   23329.26191102 -.00000113  00000-0  11292-4 0  9998
2 45371  53.0553 316.9932 0001618  96.8254 263.2919 15.06392946203817
1 45371U 20019M   23330.12440454  .00006741  00000-0  47073-3 0  9999
2 45371  53.0548 313.1199 0001525 111.1398 248.9754 15.06421427203940
1 45371U 20019M   23330.32344362  .00010844  00000-0  74520-3 0  9998
2 45371  53.0543 312.2258 0001458  96.5900 263.5254 15.06427306203974
1 45371U 20019M   23330.92057800 -.00004280  00000-0 -26870-3 0  9996
2 45371  53.0547 309.5469 0001666  92.9087 267.2093 15.06388895204060
1 45371U 20019M   23331.18597386 -.00012674  00000-0 -83434-3 0  9998
2 45371  53.0537 308.3556 0001479  70.8450 289.2699 15.06362387204103
1 45371U 20019M   23331.31867108 -.00006845  00000-0 -44154-3 0  9994
2 45371  53.0538 307.7600 0001531  71.9075 288.2081 15.06360453204129
1 45371U 20019M   23332.11485310  .00016407  00000-0  11185-2 0  9994
2 45371  53.0534 304.1857 0001556  71.3301 288.7856 15.06377018204246
1 45371U 20019M   23332.24754821  .00017143  00000-0  11675-2 0  9996
2 45371  53.0537 303.5902 0001593  71.2421 288.8740 15.06382573204263
1 45371U 20019M   23333.17640279  .00015110  00000-0  10308-2 0  9994
2 45371  53.0537 299.4201 0001540  76.7747 283.3414 15.06411653204407
1 45371U 20019M   23333.30909588  .00012339  00000-0  84553-3 0  9994
2 45371  53.0541 298.8241 0001599  72.3909 287.7254 15.06411537204428
1 45371U 20019M   23335.10043976  .00003509  00000-0  25427-3 0  9998
2 45371  53.0544 290.7822 0001381 119.8827 240.2299 15.06410840204690
1 45371U 20019M   23335.29948242  .00004890  00000-0  34687-3 0  9990
2 45371  53.0558 289.8893 0001093 112.6390 247.4714 15.06404006204720
1 45371U 20019M   23335.29948242  .00004890  00000-0  34687-3 0  9990
2 45371  53.0558 289.8893 0001093 112.6390 247.4714 15.06404006204720
1 45371U 20019M   23336.29467044  .00057848  00000-0  38627-2 0  9995
2 45371  53.0546 285.4220 0001543 102.7858 257.3304 15.06477433204877
1 45371U 20019M   23336.29467044  .00057848  00000-0  38627-2 0  9995
2 45371  53.0546 285.4220 0001543 102.7858 257.3304 15.06477433204877
1 45371U 20019M   23337.15720792  .00006584  00000-0  46118-3 0  9999
2 45371  53.0541 281.5504 0001551  66.3033 293.8118 15.06345605205002
1 45371U 20019M   23337.15720792  .00006584  00000-0  46118-3 0  9999
2 45371  53.0541 281.5504 0001551  66.3033 293.8118 15.06345605205002
1 45371U 20019M   23338.15242090  .00034856  00000-0  23478-2 0  9996
2 45371  53.0548 277.0809 0001594  80.5767 279.5402 15.06393526205154
1 45371U 20019M   23338.21876639  .00031446  00000-0  21207-2 0  9995
2 45371  53.0547 276.7826 0001581  85.1153 275.0017 15.06398427205163
1 45371U 20019M   23338.68319013  .00003240  00000-0  23630-3 0  9998
2 45371  53.0552 274.7000 0001159  78.3462 281.7657 15.06404993205237
1 45371U 20019M   23338.68319013  .00003240  00000-0  23630-3 0  9998
2 45371  53.0552 274.7000 0001159  78.3462 281.7657 15.06404993205237
1 45371U 20019M   23339.21396230  .00003536  00000-0  25606-3 0  9997
2 45371  53.0540 272.3161 0001657  96.8606 263.2571 15.06411592205316
1 45371U 20019M   23340.07645579  .00015923  00000-0  10843-2 0  9995
2 45371  53.0534 268.4450 0001619  80.1148 280.0023 15.06439210205441
1 45371U 20019M   23340.20914460  .00017468  00000-0  11872-2 0  9997
2 45371  53.0535 267.8488 0001600  87.0504 273.0668 15.06446363205464
1 45371U 20019M   23340.93896574 -.00000151  00000-0  87330-5 0  9999
2 45371  53.0539 264.5697 0001420 105.0359 255.0787 15.06399932205576
1 45371U 20019M   23341.07166109 -.00001125  00000-0 -56647-4 0  9998
2 45371  53.0535 263.9766 0001128 113.6275 246.4832 15.06392623205596
1 45371U 20019M   23341.07166109 -.00001125  00000-0 -56647-4 0  9998
2 45371  53.0535 263.9766 0001128 113.6275 246.4832 15.06392623205596
1 45371U 20019M   23341.80148944  .00006643  00000-0  46463-3 0  9998
2 45371  53.0539 260.7023 0001218 105.5784 254.5340 15.06382516205703
1 45371U 20019M   23341.80148944  .00006643  00000-0  46463-3 0  9998
2 45371  53.0539 260.7023 0001218 105.5784 254.5340 15.06382516205703
1 45371U 20019M   23342.73034930  .00005776  00000-0  40640-3 0  9997
2 45371  53.0538 256.5315 0001173 104.9933 255.1186 15.06394251205847
1 45371U 20019M   23343.72554921  .00004393  00000-0  31358-3 0  9994
2 45371  53.0547 252.0623 0001175 106.8637 253.2480 15.06404252205999
1 45371U 20019M   23343.72554921  .00004393  00000-0  31358-3 0  9994
2 45371  53.0547 252.0623 0001175 106.8637 253.2480 15.06404252205999
1 45371U 20019M   23344.12362440  .00005219  00000-0  36885-3 0  9990
2 45371  53.0539 250.2760 0001154 103.5314 256.5804 15.06412857206059
1 45371U 20019M   23344.12362440  .00005219  00000-0  36885-3 0  9990
2 45371  53.0539 250.2760 0001154 103.5314 256.5804 15.06412857206059
1 45371U 20019M   23344.91978920  .00002397  00000-0  17978-3 0  9999
2 45371  53.0542 246.7030 0002406 104.7874 255.3381 15.06405200206172
1 45371U 20019M   23345.05248519 -.00001841  00000-0 -10476-3 0  9990
2 45371  53.0539 246.1079 0001474  80.5678 279.5477 15.06394561206195
1 45371U 20019M   23345.05248519 -.00001841  00000-0 -10476-3 0  9990
2 45371  53.0539 246.1079 0001474  80.5678 279.5477 15.06394561206195
1 45371U 20019M   23345.91499771 -.00002082  00000-0 -12095-3 0  9990
2 45371  53.0527 242.2408 0001233  93.5583 266.5547 15.06392631206322
1 45371U 20019M   23345.98134465 -.00001919  00000-0 -10996-3 0  9999
2 45371  53.0532 241.9403 0001424  75.0521 285.0626 15.06396333206336
1 45371U 20019M   23346.84385646  .00004378  00000-0  31262-3 0  9993
2 45371  53.0532 238.0673 0001375  84.3019 275.8126 15.06399411206468
1 45371U 20019M   23346.91020268  .00005028  00000-0  35618-3 0  9999
2 45371  53.0534 237.7680 0001394  82.7852 277.3295 15.06402056206477
1 45371U 20019M   23346.97654968  .00006002  00000-0  42145-3 0  9991
2 45371  53.0531 237.4704 0001407  82.6633 277.4516 15.06403817206483
1 45371U 20019M   23347.90539562  .00005813  00000-0  40867-3 0  9995
2 45371  53.0529 233.2999 0001419  86.7571 273.3580 15.06416297206627
1 45371U 20019M   23347.97174114  .00006286  00000-0  44033-3 0  9994
2 45371  53.0529 233.0019 0001427  87.0982 273.0171 15.06418438206630
1 45371U 20019M   23347.97174114  .00006286  00000-0  44033-3 0  9994
2 45371  53.0529 233.0019 0001427  87.0982 273.0171 15.06418438206630
1 45371U 20019M   23348.83424814 -.00000023  00000-0  17330-4 0  9990
2 45371  53.0530 229.1285 0001735 114.5370 245.5800 15.06406165206763
1 45371U 20019M   23348.90059443 -.00000533  00000-0 -16879-4 0  9994
2 45371  53.0532 228.8298 0001758 119.1312 240.9853 15.06404804206773
1 45371U 20019M   23348.96694327 -.00001050  00000-0 -51606-4 0  9998
2 45371  53.0528 228.5328 0001517 107.1702 252.9454 15.06401788206781
